JILIN-1 KUANFU 01       
1 45016U 20003A   26187.82428263  .00002997  00000+0  18397-3 0  9997
2 45016  97.5018 261.3970 0008593 228.1159 131.9339 15.10835673358294
JILIN-1 KUANFU-01B      
1 49003U 21061A   26187.85716270  .00001384  00000+0  89570-4 0  9994
2 49003  97.5200 263.6868 0006798   8.6284 351.5061 15.09780638276315
JILIN-1 KUANFU 01C      
1 52443U 22048A   26187.84787753  .00002200  00000+0  14058-3 0  9991
2 52443  97.5246 264.6646 0016809 250.8155 109.1255 15.09568993230167
JILIN-1 KUANFU 02A      
1 57696U 23127A   26187.80761339  .00004090  00000+0  25008-3 0  9999
2 57696  97.5564 281.3779 0010000 269.6586  90.3498 15.10768175158593
JILIN-01 KUANFU 02B 1   
1 61189U 24169A   26187.81162897  .00003189  00000+0  20562-3 0  9991
2 61189  97.5571 277.0310 0002282  13.6971 346.4319 15.09017741 98789
JILIN-01 KUANFU 02B 2   
1 61190U 24169B   26187.85735238  .00003849  00000+0  24753-3 0  9991
2 61190  97.5566 276.4619 0005128 315.9148  44.1671 15.08982556 98794
JILIN-01 KUANFU 02B 3   
1 61191U 24169C   26187.80018723  .00003803  00000+0  24406-3 0  9995
2 61191  97.5561 276.8385 0012482 236.7067 123.2967 15.09019066 98789
JILIN-01 KUANFU 02B 4   
1 61192U 24169D   26187.83517200  .00003248  00000+0  20908-3 0  9999
2 61192  97.5528 276.4034 0013227 191.2267 168.8669 15.09003548 98798
JILIN-01 KUANFU 02B 5   
1 61193U 24169E   26187.82239144  .00002730  00000+0  17629-3 0  9998
2 61193  97.5573 277.1821 0012398 216.7173 143.3208 15.09036006 98790
JILIN-01 KUANFU 02B 6   
1 61194U 24169F   26187.84580686  .00003221  00000+0  20727-3 0  9990
2 61194  97.5557 277.1002 0015041 251.9957 107.9632 15.08999230 98808
