{"fetched_at":"2026-07-07T07:58:37.854Z","source":"https://celestrak.org/NORAD/elements/gp.php?NAME=JILIN&FORMAT=JSON","constellation":"jilin-1-kuanfu","records":[{"OBJECT_NAME":"JILIN-1 KUANFU 01","OBJECT_ID":"2020-003A","EPOCH":"2026-07-06T19:46:58.019232","CLASSIFICATION_TYPE":"U","MEAN_MOTION":15.10835673,"ECCENTRICITY":0.0008593,"INCLINATION":97.5018,"RA_OF_ASC_NODE":261.397,"ARG_OF_PERICENTER":228.1159,"MEAN_ANOMALY":131.9339,"EPHEMERIS_TYPE":0,"NORAD_CAT_ID":45016,"ELEMENT_SET_NO":999,"REV_AT_EPOCH":35829,"BSTAR":0.00018397,"MEAN_MOTION_DOT":0.00002997,"MEAN_MOTION_DDOT":0},{"OBJECT_NAME":"JILIN-1 KUANFU-01B","OBJECT_ID":"2021-061A","EPOCH":"2026-07-06T20:34:18.857280","CLASSIFICATION_TYPE":"U","MEAN_MOTION":15.09780638,"ECCENTRICITY":0.0006798,"INCLINATION":97.52,"RA_OF_ASC_NODE":263.6868,"ARG_OF_PERICENTER":8.6284,"MEAN_ANOMALY":351.5061,"EPHEMERIS_TYPE":0,"NORAD_CAT_ID":49003,"ELEMENT_SET_NO":999,"REV_AT_EPOCH":27631,"BSTAR":0.00008957,"MEAN_MOTION_DOT":0.00001384,"MEAN_MOTION_DDOT":0},{"OBJECT_NAME":"JILIN-1 KUANFU 01C","OBJECT_ID":"2022-048A","EPOCH":"2026-07-06T20:20:56.618592","CLASSIFICATION_TYPE":"U","MEAN_MOTION":15.09568993,"ECCENTRICITY":0.0016809,"INCLINATION":97.5246,"RA_OF_ASC_NODE":264.6646,"ARG_OF_PERICENTER":250.8155,"MEAN_ANOMALY":109.1255,"EPHEMERIS_TYPE":0,"NORAD_CAT_ID":52443,"ELEMENT_SET_NO":999,"REV_AT_EPOCH":23016,"BSTAR":0.00014058,"MEAN_MOTION_DOT":0.000022,"MEAN_MOTION_DDOT":0},{"OBJECT_NAME":"JILIN-1 KUANFU 02A","OBJECT_ID":"2023-127A","EPOCH":"2026-07-06T19:22:57.796896","CLASSIFICATION_TYPE":"U","MEAN_MOTION":15.10768175,"ECCENTRICITY":0.001,"INCLINATION":97.5564,"RA_OF_ASC_NODE":281.3779,"ARG_OF_PERICENTER":269.6586,"MEAN_ANOMALY":90.3498,"EPHEMERIS_TYPE":0,"NORAD_CAT_ID":57696,"ELEMENT_SET_NO":999,"REV_AT_EPOCH":15859,"BSTAR":0.00025008,"MEAN_MOTION_DOT":0.0000409,"MEAN_MOTION_DDOT":0},{"OBJECT_NAME":"JILIN-01 KUANFU 02B 1","OBJECT_ID":"2024-169A","EPOCH":"2026-07-06T19:28:44.743008","CLASSIFICATION_TYPE":"U","MEAN_MOTION":15.09017741,"ECCENTRICITY":0.0002282,"INCLINATION":97.5571,"RA_OF_ASC_NODE":277.031,"ARG_OF_PERICENTER":13.6971,"MEAN_ANOMALY":346.4319,"EPHEMERIS_TYPE":0,"NORAD_CAT_ID":61189,"ELEMENT_SET_NO":999,"REV_AT_EPOCH":9878,"BSTAR":0.00020562,"MEAN_MOTION_DOT":0.00003189,"MEAN_MOTION_DDOT":0},{"OBJECT_NAME":"JILIN-01 KUANFU 02B 2","OBJECT_ID":"2024-169B","EPOCH":"2026-07-06T20:34:35.245632","CLASSIFICATION_TYPE":"U","MEAN_MOTION":15.08982556,"ECCENTRICITY":0.0005128,"INCLINATION":97.5566,"RA_OF_ASC_NODE":276.4619,"ARG_OF_PERICENTER":315.9148,"MEAN_ANOMALY":44.1671,"EPHEMERIS_TYPE":0,"NORAD_CAT_ID":61190,"ELEMENT_SET_NO":999,"REV_AT_EPOCH":9879,"BSTAR":0.00024753,"MEAN_MOTION_DOT":0.00003849,"MEAN_MOTION_DDOT":0},{"OBJECT_NAME":"JILIN-01 KUANFU 02B 3","OBJECT_ID":"2024-169C","EPOCH":"2026-07-06T19:12:16.176672","CLASSIFICATION_TYPE":"U","MEAN_MOTION":15.09019066,"ECCENTRICITY":0.0012482,"INCLINATION":97.5561,"RA_OF_ASC_NODE":276.8385,"ARG_OF_PERICENTER":236.7067,"MEAN_ANOMALY":123.2967,"EPHEMERIS_TYPE":0,"NORAD_CAT_ID":61191,"ELEMENT_SET_NO":999,"REV_AT_EPOCH":9878,"BSTAR":0.00024406,"MEAN_MOTION_DOT":0.00003803,"MEAN_MOTION_DDOT":0},{"OBJECT_NAME":"JILIN-01 KUANFU 02B 4","OBJECT_ID":"2024-169D","EPOCH":"2026-07-06T20:02:38.860800","CLASSIFICATION_TYPE":"U","MEAN_MOTION":15.09003548,"ECCENTRICITY":0.0013227,"INCLINATION":97.5528,"RA_OF_ASC_NODE":276.4034,"ARG_OF_PERICENTER":191.2267,"MEAN_ANOMALY":168.8669,"EPHEMERIS_TYPE":0,"NORAD_CAT_ID":61192,"ELEMENT_SET_NO":999,"REV_AT_EPOCH":9879,"BSTAR":0.00020908,"MEAN_MOTION_DOT":0.00003248,"MEAN_MOTION_DDOT":0},{"OBJECT_NAME":"JILIN-01 KUANFU 02B 5","OBJECT_ID":"2024-169E","EPOCH":"2026-07-06T19:44:14.620416","CLASSIFICATION_TYPE":"U","MEAN_MOTION":15.09036006,"ECCENTRICITY":0.0012398,"INCLINATION":97.5573,"RA_OF_ASC_NODE":277.1821,"ARG_OF_PERICENTER":216.7173,"MEAN_ANOMALY":143.3208,"EPHEMERIS_TYPE":0,"NORAD_CAT_ID":61193,"ELEMENT_SET_NO":999,"REV_AT_EPOCH":9879,"BSTAR":0.00017629,"MEAN_MOTION_DOT":0.0000273,"MEAN_MOTION_DDOT":0},{"OBJECT_NAME":"JILIN-01 KUANFU 02B 6","OBJECT_ID":"2024-169F","EPOCH":"2026-07-06T20:17:57.712704","CLASSIFICATION_TYPE":"U","MEAN_MOTION":15.0899923,"ECCENTRICITY":0.0015041,"INCLINATION":97.5557,"RA_OF_ASC_NODE":277.1002,"ARG_OF_PERICENTER":251.9957,"MEAN_ANOMALY":107.9632,"EPHEMERIS_TYPE":0,"NORAD_CAT_ID":61194,"ELEMENT_SET_NO":999,"REV_AT_EPOCH":9880,"BSTAR":0.00020727,"MEAN_MOTION_DOT":0.00003221,"MEAN_MOTION_DDOT":0}]}
